{
  "type": "FeatureCollection",
  "features": [
    {
      "type": "Feature",
      "properties": {
        "norad_id": 64903,
        "name": "CO3D 1",
        "group": "resource",
        "lat": -75.8791661760554,
        "lon": -133.61280932060308,
        "alt_km": 513.1666635458232,
        "timestamp": "2025-12-27T14:26:30.174661+00:00",
        "meta_object_name": "CO3D 1",
        "meta_object_id": "2025-156E",
        "meta_epoch": "2025-12-27T06:59:29.208192",
        "meta_mean_motion": 15.20199804,
        "meta_eccentricity": 9.042e-05,
        "meta_inclination": 97.434,
        "meta_ra_of_asc_node": 77.3484,
        "meta_arg_of_pericenter": 67.0171,
        "meta_mean_anomaly": 293.116,
        "meta_ephemeris_type": 0,
        "meta_classification_type": "U",
        "meta_norad_cat_id": 64903,
        "meta_element_set_no": 999,
        "meta_rev_at_epoch": 2341,
        "meta_bstar": 0.00061159022,
        "meta_mean_motion_dot": 0.00013194,
        "meta_mean_motion_ddot": 0,
        "tle_line1": "1 64903U 25156E   25361.29131028  .00013194  00000+0  61159-3 0  9996",
        "tle_line2": "2 64903  97.4340  77.3484 0000904  67.0171 293.1160 15.20199804 23410"
      },
      "geometry": {
        "type": "Point",
        "coordinates": [
          -133.61280932060308,
          -75.8791661760554
        ]
      }
    },
    {
      "type": "Feature",
      "properties": {
        "norad_id": 66514,
        "name": "SENTINEL-6B",
        "group": "resource",
        "lat": -39.95933057450231,
        "lon": -26.56090000586312,
        "alt_km": 1338.965334426337,
        "timestamp": "2025-12-27T14:26:30.174671+00:00",
        "meta_object_name": "SENTINEL-6B",
        "meta_object_id": "2025-264A",
        "meta_epoch": "2025-12-27T02:01:46.344288",
        "meta_mean_motion": 12.8092956,
        "meta_eccentricity": 0.00079209,
        "meta_inclination": 66.0402,
        "meta_ra_of_asc_node": 132.6397,
        "meta_arg_of_pericenter": 270.009,
        "meta_mean_anomaly": 90.0018,
        "meta_ephemeris_type": 0,
        "meta_classification_type": "U",
        "meta_norad_cat_id": 66514,
        "meta_element_set_no": 999,
        "meta_rev_at_epoch": 512,
        "meta_bstar": 7.3939819e-05,
        "meta_mean_motion_dot": -4.4e-07,
        "meta_mean_motion_ddot": 0,
        "tle_line1": "1 66514U 25264A   25361.08456417 -.00000044  00000+0  73940-4 0  9998",
        "tle_line2": "2 66514  66.0402 132.6397 0007920 270.0090  90.0018 12.80929560  5127"
      },
      "geometry": {
        "type": "Point",
        "coordinates": [
          -26.56090000586312,
          -39.95933057450231
        ]
      }
    }
  ]
}